IRIDIUM 57 [-]          
1 25273U 98019B   24001.52980739  .00000396  00000+0  13206-3 0  9998
2 25273  86.3962   8.3210 0002232  90.2905 269.8547 14.35032445348370
IRIDIUM 63 [-]          
1 25286U 98021B   24001.33659122  .00000582  00000+0  19535-3 0  9991
2 25286  86.3989 305.3366 0002152  91.2720 268.8723 14.35549328347379
IRIDIUM 69 [-]          
1 25319U 98026A   24001.40836672  .00000579  00000+0  17856-3 0  9998
2 25319  86.3992 320.1869 0002638  33.6597 326.4769 14.39728578346374
IRIDIUM 71 [-]          
1 25320U 98026B   24001.37637092  .00000605  00000+0  18579-3 0  9994
2 25320  86.3984 315.0052 0004074  66.8860 293.2768 14.40056633346885
IRIDIUM 73 [-]          
1 25344U 98032C   24001.30708347  .00000717  00000+0  17908-3 0  9991
2 25344  86.4418 272.7125 0002254  67.9443 292.2001 14.50220060353291
IRIDIUM 82 [-]          
1 25467U 98051A   24001.48320432  .00008190  00000+0  45647-3 0  9996
2 25467  86.3958   4.8444 0143563 113.4079 248.2328 15.04922864343220
IRIDIUM 2 [-]           
1 25527U 98066A   24001.58618449  .00038649  00000+0  69710-3 0  9997
2 25527  85.5153  49.9330 0002191 208.2552 151.8587 15.49593961381723
